start=new Date('2021-12-24T00:00:00.000Z').valueOf();
sats=[{"ECCENTRICITY":"0.00023670","MEAN_MOTION_DOT":"-0.00000610","DECAY_DATE":null,"CLASSIFICATION_TYPE":"U","TLE_LINE2":"2 46573  53.0526 220.5766 0002367  71.6792 288.4454 15.06387675 68081","SITE":"AFETR","MEAN_ANOMALY":"288.4454","SEMIMAJOR_AXIS":"6925.386","RA_OF_ASC_NODE":"220.5766","REF_FRAME":"TEME","ARG_OF_PERICENTER":"71.6792","MEAN_MOTION":"15.06387675","FILE":"3249421","EPOCH":"2021-12-23T21:21:25.926624","COUNTRY_CODE":"US","TIME_SYSTEM":"UTC","REV_AT_EPOCH":"6808","PERIOD":"95.593","EPHEMERIS_TYPE":"0","ELEMENT_SET_NO":"999","INCLINATION":"53.0526","MEAN_ELEMENT_THEORY":"SGP4","PERIAPSIS":"545.612","GP_ID":"192324991","OBJECT_ID":"2020-070AT","OBJECT_TYPE":"PAYLOAD","LAUNCH_DATE":"2020-10-06","BSTAR":"-0.00002204600000","OBJECT_NAME":"STARLINK-1650","TLE_LINE1":"1 46573U 20070AT  21357.88988341 -.00000610  00000-0 -22046-4 0  9998","APOAPSIS":"548.891","RCS_SIZE":"LARGE","MEAN_MOTION_DDOT":"0.0000000000000","NORAD_CAT_ID":"46573","CENTER_NAME":"EARTH"},{"BSTAR":"0.00025964000000","OBJECT_NAME":"STARLINK-1660","NORAD_CAT_ID":"46574","MEAN_MOTION_DDOT":"0.0000000000000","CENTER_NAME":"EARTH","TLE_LINE1":"1 46574U 20070AU  21357.87512731  .00003588  00000-0  25964-3 0  9990","APOAPSIS":"548.732","RCS_SIZE":"LARGE","ELEMENT_SET_NO":"999","REV_AT_EPOCH":"6808","TIME_SYSTEM":"UTC","EPHEMERIS_TYPE":"0","PERIOD":"95.592","OBJECT_TYPE":"PAYLOAD","OBJECT_ID":"2020-070AU","GP_ID":"192324744","LAUNCH_DATE":"2020-10-06","INCLINATION":"53.0525","MEAN_ELEMENT_THEORY":"SGP4","PERIAPSIS":"545.693","ARG_OF_PERICENTER":"76.1562","FILE":"3249421","MEAN_MOTION":"15.06400393","SEMIMAJOR_AXIS":"6925.347","MEAN_ANOMALY":"283.9671","REF_FRAME":"TEME","RA_OF_ASC_NODE":"220.6531","COUNTRY_CODE":"US","EPOCH":"2021-12-23T21:00:10.999584","TLE_LINE2":"2 46574  53.0525 220.6531 0002194  76.1562 283.9671 15.06400393 68089","MEAN_MOTION_DOT":"0.00003588","ECCENTRICITY":"0.00021940","CLASSIFICATION_TYPE":"U","DECAY_DATE":null,"SITE":"AFETR"},{"TLE_LINE1":"1 46575U 20070AV  21357.86729300 -.00000495  00000-0 -14312-4 0  9994","APOAPSIS":"549.020","RCS_SIZE":"LARGE","NORAD_CAT_ID":"46575","MEAN_MOTION_DDOT":"0.0000000000000","CENTER_NAME":"EARTH","BSTAR":"-0.00001431200000","OBJECT_NAME":"STARLINK-1675","MEAN_ELEMENT_THEORY":"SGP4","INCLINATION":"53.0530","PERIAPSIS":"545.468","OBJECT_TYPE":"PAYLOAD","OBJECT_ID":"2020-070AV","GP_ID":"192323995","LAUNCH_DATE":"2020-10-06","REV_AT_EPOCH":"6842","TIME_SYSTEM":"UTC","EPHEMERIS_TYPE":"0","PERIOD":"95.593","ELEMENT_SET_NO":"999","EPOCH":"2021-12-23T20:48:54.115200","COUNTRY_CODE":"US","MEAN_ANOMALY":"283.1065","SEMIMAJOR_AXIS":"6925.379","RA_OF_ASC_NODE":"195.6830","REF_FRAME":"TEME","ARG_OF_PERICENTER":"77.0210","FILE":"3249421","MEAN_MOTION":"15.06390099","SITE":"AFETR","MEAN_MOTION_DOT":"-0.00000495","ECCENTRICITY":"0.00025640","CLASSIFICATION_TYPE":"U","DECAY_DATE":null,"TLE_LINE2":"2 46575  53.0530 195.6830 0002564  77.0210 283.1065 15.06390099 68428"},{"EPOCH":"2021-12-23T20:49:34.190976","COUNTRY_CODE":"US","REF_FRAME":"TEME","RA_OF_ASC_NODE":"220.6770","MEAN_ANOMALY":"291.0640","SEMIMAJOR_AXIS":"6925.379","MEAN_MOTION":"15.06390060","FILE":"3249421","ARG_OF_PERICENTER":"69.0553","SITE":"AFETR","DECAY_DATE":null,"CLASSIFICATION_TYPE":"U","ECCENTRICITY":"0.00019170","MEAN_MOTION_DOT":"0.00001142","TLE_LINE2":"2 46576  53.0521 220.6770 0001917  69.0553 291.0640 15.06390060 68080","RCS_SIZE":"LARGE","APOAPSIS":"548.572","TLE_LINE1":"1 46576U 20070AW  21357.86775684  .00001142  00000-0  95555-4 0  9997","CENTER_NAME":"EARTH","MEAN_MOTION_DDOT":"0.0000000000000","NORAD_CAT_ID":"46576","OBJECT_NAME":"STARLINK-1677","BSTAR":"0.00009555500000","PERIAPSIS":"545.916","MEAN_ELEMENT_THEORY":"SGP4","INCLINATION":"53.0521","LAUNCH_DATE":"2020-10-06","GP_ID":"192324246","OBJECT_ID":"2020-070AW","OBJECT_TYPE":"PAYLOAD","PERIOD":"95.593","EPHEMERIS_TYPE":"0","TIME_SYSTEM":"UTC","REV_AT_EPOCH":"6808","ELEMENT_SET_NO":"999"},{"ARG_OF_PERICENTER":"78.6998","FILE":"3249421","MEAN_MOTION":"15.06393110","SEMIMAJOR_AXIS":"6925.370","MEAN_ANOMALY":"281.4259","RA_OF_ASC_NODE":"220.5539","REF_FRAME":"TEME","COUNTRY_CODE":"US","EPOCH":"2021-12-23T21:32:02.590944","TLE_LINE2":"2 46577  53.0542 220.5539 0002388  78.6998 281.4259 15.06393110 68086","MEAN_MOTION_DOT":"0.00001074","ECCENTRICITY":"0.00023880","CLASSIFICATION_TYPE":"U","DECAY_DATE":null,"SITE":"AFETR","BSTAR":"0.00009104300000","OBJECT_NAME":"STARLINK-1682","NORAD_CAT_ID":"46577","MEAN_MOTION_DDOT":"0.0000000000000","CENTER_NAME":"EARTH","TLE_LINE1":"1 46577U 20070AX  21357.89725221  .00001074  00000-0  91043-4 0  9995","APOAPSIS":"548.888","RCS_SIZE":"LARGE","ELEMENT_SET_NO":"999","REV_AT_EPOCH":"6808","TIME_SYSTEM":"UTC","EPHEMERIS_TYPE":"0","PERIOD":"95.593","OBJECT_ID":"2020-070AX","OBJECT_TYPE":"PAYLOAD","GP_ID":"192324491","LAUNCH_DATE":"2020-10-06","INCLINATION":"53.0542","MEAN_ELEMENT_THEORY":"SGP4","PERIAPSIS":"545.581"},{"COUNTRY_CODE":"US","EPOCH":"2021-12-23T20:58:11.287200","ARG_OF_PERICENTER":"74.8650","FILE":"3249421","MEAN_MOTION":"15.06371641","MEAN_ANOMALY":"285.2654","SEMIMAJOR_AXIS":"6925.435","REF_FRAME":"TEME","RA_OF_ASC_NODE":"205.6622","SITE":"AFETR","TLE_LINE2":"2 46578  53.0526 205.6622 0002844  74.8650 285.2654 15.06371641 68295","MEAN_MOTION_DOT":"0.00015613","ECCENTRICITY":"0.00028440","CLASSIFICATION_TYPE":"U","DECAY_DATE":null,"NORAD_CAT_ID":"46578","MEAN_MOTION_DDOT":"0.0000000000000","CENTER_NAME":"EARTH","TLE_LINE1":"1 46578U 20070AY  21357.87374175  .00015613  00000-0  10655-2 0  9994","RCS_SIZE":"LARGE","APOAPSIS":"549.270","BSTAR":"0.00106550000000","OBJECT_NAME":"STARLINK-1683","OBJECT_ID":"2020-070AY","OBJECT_TYPE":"PAYLOAD","GP_ID":"192325245","LAUNCH_DATE":"2020-10-06","INCLINATION":"53.0526","MEAN_ELEMENT_THEORY":"SGP4","PERIAPSIS":"545.331","ELEMENT_SET_NO":"999","REV_AT_EPOCH":"6829","TIME_SYSTEM":"UTC","EPHEMERIS_TYPE":"0","PERIOD":"95.594"},{"ELEMENT_SET_NO":"999","EPHEMERIS_TYPE":"0","PERIOD":"95.593","REV_AT_EPOCH":"6808","TIME_SYSTEM":"UTC","LAUNCH_DATE":"2020-10-06","OBJECT_TYPE":"PAYLOAD","OBJECT_ID":"2020-070AZ","GP_ID":"192323495","PERIAPSIS":"545.531","INCLINATION":"53.0533","MEAN_ELEMENT_THEORY":"SGP4","OBJECT_NAME":"STARLINK-1705","BSTAR":"0.00005746100000","CENTER_NAME":"EARTH","NORAD_CAT_ID":"46579","MEAN_MOTION_DDOT":"0.0000000000000","APOAPSIS":"548.937","RCS_SIZE":"LARGE","TLE_LINE1":"1 46579U 20070AZ  21357.88251130  .00000574  00000-0  57461-4 0  9999","TLE_LINE2":"2 46579  53.0533 220.6185 0002459  78.7751 281.3514 15.06393192 68086","CLASSIFICATION_TYPE":"U","DECAY_DATE":null,"MEAN_MOTION_DOT":"0.00000574","ECCENTRICITY":"0.00024590","SITE":"AFETR","FILE":"3249421","MEAN_MOTION":"15.06393192","ARG_OF_PERICENTER":"78.7751","REF_FRAME":"TEME","RA_OF_ASC_NODE":"220.6185","SEMIMAJOR_AXIS":"6925.369","MEAN_ANOMALY":"281.3514","COUNTRY_CODE":"US","EPOCH":"2021-12-23T21:10:48.976320"},{"EPOCH":"2021-12-23T20:38:57.637248","COUNTRY_CODE":"US","REF_FRAME":"TEME","RA_OF_ASC_NODE":"220.7089","MEAN_ANOMALY":"287.3574","SEMIMAJOR_AXIS":"6925.361","MEAN_MOTION":"15.06395836","FILE":"3249421","ARG_OF_PERICENTER":"72.7700","SITE":"AFETR","DECAY_DATE":null,"CLASSIFICATION_TYPE":"U","ECCENTRICITY":"0.00026090","MEAN_MOTION_DOT":"0.00003220","TLE_LINE2":"2 46580  53.0522 220.7089 0002609  72.7700 287.3574 15.06395836 68084","RCS_SIZE":"LARGE","APOAPSIS":"549.033","TLE_LINE1":"1 46580U 20070BA  21357.86038932  .00003220  00000-0  23498-3 0  9995","CENTER_NAME":"EARTH","MEAN_MOTION_DDOT":"0.0000000000000","NORAD_CAT_ID":"46580","OBJECT_NAME":"STARLINK-1708","BSTAR":"0.00023498000000","PERIAPSIS":"545.419","INCLINATION":"53.0522","MEAN_ELEMENT_THEORY":"SGP4","LAUNCH_DATE":"2020-10-06","GP_ID":"192323746","OBJECT_ID":"2020-070BA","OBJECT_TYPE":"PAYLOAD","PERIOD":"95.592","EPHEMERIS_TYPE":"0","TIME_SYSTEM":"UTC","REV_AT_EPOCH":"6808","ELEMENT_SET_NO":"999"},{"EPOCH":"2021-12-23T19:49:12.313344","COUNTRY_CODE":"US","RA_OF_ASC_NODE":"215.8556","REF_FRAME":"TEME","SEMIMAJOR_AXIS":"6925.373","MEAN_ANOMALY":"285.0439","FILE":"3249421","MEAN_MOTION":"15.06391872","ARG_OF_PERICENTER":"75.0830","SITE":"AFETR","CLASSIFICATION_TYPE":"U","DECAY_DATE":null,"MEAN_MOTION_DOT":"-0.00000977","ECCENTRICITY":"0.00025330","TLE_LINE2":"2 46581  53.0539 215.8556 0002533  75.0830 285.0439 15.06391872 68141","RCS_SIZE":"LARGE","APOAPSIS":"548.993","TLE_LINE1":"1 46581U 20070BB  21357.82583696 -.00000977  00000-0 -46677-4 0  9997","CENTER_NAME":"EARTH","NORAD_CAT_ID":"46581","MEAN_MOTION_DDOT":"0.0000000000000","OBJECT_NAME":"STARLINK-1712","BSTAR":"-0.00004667700000","PERIAPSIS":"545.484","MEAN_ELEMENT_THEORY":"SGP4","INCLINATION":"53.0539","LAUNCH_DATE":"2020-10-06","OBJECT_ID":"2020-070BB","OBJECT_TYPE":"PAYLOAD","GP_ID":"192324992","EPHEMERIS_TYPE":"0","PERIOD":"95.593","REV_AT_EPOCH":"6814","TIME_SYSTEM":"UTC","ELEMENT_SET_NO":"999"},{"ELEMENT_SET_NO":"999","REV_AT_EPOCH":"6815","TIME_SYSTEM":"UTC","EPHEMERIS_TYPE":"0","PERIOD":"95.593","OBJECT_TYPE":"PAYLOAD","OBJECT_ID":"2020-070BC","GP_ID":"192324745","LAUNCH_DATE":"2020-10-06","MEAN_ELEMENT_THEORY":"SGP4","INCLINATION":"53.0564","PERIAPSIS":"545.501","BSTAR":"0.00009060700000","OBJECT_NAME":"STARLINK-1728","NORAD_CAT_ID":"46582","MEAN_MOTION_DDOT":"0.0000000000000","CENTER_NAME":"EARTH","TLE_LINE1":"1 46582U 20070BC  21357.87745172  .00001067  00000-0  90607-4 0  9993","RCS_SIZE":"LARGE","APOAPSIS":"549.021","TLE_LINE2":"2 46582  53.0564 215.5818 0002541  83.3561 276.7717 15.06384554 68156","MEAN_MOTION_DOT":"0.00001067","ECCENTRICITY":"0.00025410","CLASSIFICATION_TYPE":"U","DECAY_DATE":null,"SITE":"AFETR","ARG_OF_PERICENTER":"83.3561","FILE":"3249421","MEAN_MOTION":"15.06384554","MEAN_ANOMALY":"276.7717","SEMIMAJOR_AXIS":"6925.396","REF_FRAME":"TEME","RA_OF_ASC_NODE":"215.5818","COUNTRY_CODE":"US","EPOCH":"2021-12-23T21:03:31.828608"}];
